[{"OBJECT_NAME":"STARLINK-4076","OBJECT_ID":"2022-053M","EPOCH":"2026-03-09T12:36:54.324864","MEAN_MOTION":15.08834598,"ECCENTRICITY":0.00014802,"INCLINATION":53.2178,"RA_OF_ASC_NODE":154.8591,"ARG_OF_PERICENTER":98.2292,"MEAN_ANOMALY":261.8868,"EPHEMERIS_TYPE":0,"CLASSIFICATION_TYPE":"U","NORAD_CAT_ID":52667,"ELEMENT_SET_NO":999,"REV_AT_EPOCH":21102,"BSTAR":5.0402057e-5,"MEAN_MOTION_DOT":5.14e-6,"MEAN_MOTION_DDOT":0},{"OBJECT_NAME":"ELECTRON KICK STAGE R\/B","OBJECT_ID":"2019-069C","EPOCH":"2026-03-09T21:46:17.810112","MEAN_MOTION":14.3018174,"ECCENTRICITY":0.04358653,"INCLINATION":87.9001,"RA_OF_ASC_NODE":206.3408,"ARG_OF_PERICENTER":37.1425,"MEAN_ANOMALY":325.9095,"EPHEMERIS_TYPE":0,"CLASSIFICATION_TYPE":"U","NORAD_CAT_ID":44636,"ELEMENT_SET_NO":999,"REV_AT_EPOCH":33098,"BSTAR":0.0004662077,"MEAN_MOTION_DOT":3.501e-5,"MEAN_MOTION_DDOT":0}]
